start=new Date('2022-02-12T00:00:00.000Z').valueOf();
sats=[{"APOAPSIS":"548.189","OBJECT_TYPE":"PAYLOAD","OBJECT_ID":"2021-021R","FILE":"3297735","MEAN_MOTION":"15.06416445","REF_FRAME":"TEME","MEAN_ANOMALY":"287.0773","EPOCH":"2022-02-11T10:40:10.588800","PERIAPSIS":"546.137","OBJECT_NAME":"STARLINK-2331","ECCENTRICITY":"0.00014820","TLE_LINE1":"1 47875U 21021R   22042.44456700  .00002282  00000-0  17199-3 0  9991","LAUNCH_DATE":"2021-03-14","NORAD_CAT_ID":"47875","CLASSIFICATION_TYPE":"U","RCS_SIZE":"LARGE","EPHEMERIS_TYPE":"0","RA_OF_ASC_NODE":"108.1267","DECAY_DATE":null,"PERIOD":"95.591","ELEMENT_SET_NO":"999","GP_ID":"195753871","MEAN_ELEMENT_THEORY":"SGP4","BSTAR":"0.00017199000000","REV_AT_EPOCH":"5208","COUNTRY_CODE":"US","SEMIMAJOR_AXIS":"6925.298","CENTER_NAME":"EARTH","TIME_SYSTEM":"UTC","ARG_OF_PERICENTER":"73.0379","INCLINATION":"53.0571","MEAN_MOTION_DDOT":"0.0000000000000","MEAN_MOTION_DOT":"0.00002282","SITE":"AFETR","TLE_LINE2":"2 47875  53.0571 108.1267 0001482  73.0379 287.0773 15.06416445 52088"},{"MEAN_ELEMENT_THEORY":"SGP4","ELEMENT_SET_NO":"999","GP_ID":"195752619","RA_OF_ASC_NODE":"107.8851","DECAY_DATE":null,"PERIOD":"95.590","COUNTRY_CODE":"US","REV_AT_EPOCH":"5204","BSTAR":"0.00079394000000","TIME_SYSTEM":"UTC","ARG_OF_PERICENTER":"58.9605","SEMIMAJOR_AXIS":"6925.266","CENTER_NAME":"EARTH","TLE_LINE2":"2 47876  53.0533 107.8851 0001648  58.9605 301.1545 15.06426794 52049","MEAN_MOTION_DOT":"0.00011572","SITE":"AFETR","MEAN_MOTION_DDOT":"0.0000000000000","INCLINATION":"53.0533","OBJECT_ID":"2021-021S","OBJECT_TYPE":"PAYLOAD","FILE":"3297735","APOAPSIS":"548.273","REF_FRAME":"TEME","MEAN_MOTION":"15.06426794","MEAN_ANOMALY":"301.1545","EPOCH":"2022-02-11T11:59:46.630464","OBJECT_NAME":"STARLINK-2332","PERIAPSIS":"545.990","ECCENTRICITY":"0.00016480","RCS_SIZE":"LARGE","EPHEMERIS_TYPE":"0","NORAD_CAT_ID":"47876","CLASSIFICATION_TYPE":"U","TLE_LINE1":"1 47876U 21021S   22042.49984526  .00011572  00000-0  79394-3 0  9996","LAUNCH_DATE":"2021-03-14"},{"EPOCH":"2022-02-11T15:32:05.368704","MEAN_ANOMALY":"291.1807","PERIAPSIS":"546.106","OBJECT_NAME":"STARLINK-2333","ECCENTRICITY":"0.00015380","RCS_SIZE":"LARGE","EPHEMERIS_TYPE":"0","NORAD_CAT_ID":"47877","CLASSIFICATION_TYPE":"U","TLE_LINE1":"1 47877U 21021T   22042.64728436  .00002560  00000-0  19061-3 0  9992","LAUNCH_DATE":"2021-03-14","OBJECT_TYPE":"PAYLOAD","OBJECT_ID":"2021-021T","FILE":"3297830","APOAPSIS":"548.236","REF_FRAME":"TEME","MEAN_MOTION":"15.06413911","TIME_SYSTEM":"UTC","ARG_OF_PERICENTER":"68.9346","CENTER_NAME":"EARTH","SEMIMAJOR_AXIS":"6925.306","TLE_LINE2":"2 47877  53.0565 107.2120 0001538  68.9346 291.1807 15.06413911 51583","MEAN_MOTION_DOT":"0.00002560","SITE":"AFETR","MEAN_MOTION_DDOT":"0.0000000000000","INCLINATION":"53.0565","MEAN_ELEMENT_THEORY":"SGP4","ELEMENT_SET_NO":"999","GP_ID":"195758268","RA_OF_ASC_NODE":"107.2120","DECAY_DATE":null,"PERIOD":"95.591","REV_AT_EPOCH":"5158","COUNTRY_CODE":"US","BSTAR":"0.00019061000000"},{"MEAN_ANOMALY":"303.8408","EPOCH":"2022-02-11T12:36:55.936224","PERIAPSIS":"545.876","ECCENTRICITY":"0.00018420","OBJECT_NAME":"STARLINK-2335","RCS_SIZE":"LARGE","EPHEMERIS_TYPE":"0","NORAD_CAT_ID":"47878","CLASSIFICATION_TYPE":"U","LAUNCH_DATE":"2021-03-14","TLE_LINE1":"1 47878U 21021U   22042.52564741  .00012507  00000-0  85658-3 0  9994","OBJECT_ID":"2021-021U","OBJECT_TYPE":"PAYLOAD","FILE":"3297735","APOAPSIS":"548.427","REF_FRAME":"TEME","MEAN_MOTION":"15.06420354","TIME_SYSTEM":"UTC","ARG_OF_PERICENTER":"56.2756","CENTER_NAME":"EARTH","SEMIMAJOR_AXIS":"6925.286","TLE_LINE2":"2 47878  53.0538 107.7618 0001842  56.2756 303.8408 15.06420354 51839","MEAN_MOTION_DOT":"0.00012507","SITE":"AFETR","MEAN_MOTION_DDOT":"0.0000000000000","INCLINATION":"53.0538","MEAN_ELEMENT_THEORY":"SGP4","ELEMENT_SET_NO":"999","GP_ID":"195753120","RA_OF_ASC_NODE":"107.7618","DECAY_DATE":null,"PERIOD":"95.591","COUNTRY_CODE":"US","REV_AT_EPOCH":"5183","BSTAR":"0.00085658000000"},{"MEAN_ANOMALY":"296.8928","EPOCH":"2022-02-11T12:32:17.390400","OBJECT_NAME":"STARLINK-2336","PERIAPSIS":"546.135","ECCENTRICITY":"0.00015300","NORAD_CAT_ID":"47879","CLASSIFICATION_TYPE":"U","RCS_SIZE":"LARGE","EPHEMERIS_TYPE":"0","TLE_LINE1":"1 47879U 21021V   22042.52242350  .00000880  00000-0  77946-4 0  9997","LAUNCH_DATE":"2021-03-14","OBJECT_ID":"2021-021V","OBJECT_TYPE":"PAYLOAD","FILE":"3297735","APOAPSIS":"548.254","REF_FRAME":"TEME","MEAN_MOTION":"15.06406089","TIME_SYSTEM":"UTC","ARG_OF_PERICENTER":"63.2217","CENTER_NAME":"EARTH","SEMIMAJOR_AXIS":"6925.330","MEAN_MOTION_DOT":"0.00000880","SITE":"AFETR","TLE_LINE2":"2 47879  53.0546 122.7840 0001530  63.2217 296.8928 15.06406089 52004","INCLINATION":"53.0546","MEAN_MOTION_DDOT":"0.0000000000000","ELEMENT_SET_NO":"999","GP_ID":"195753371","MEAN_ELEMENT_THEORY":"SGP4","RA_OF_ASC_NODE":"122.7840","DECAY_DATE":null,"PERIOD":"95.592","REV_AT_EPOCH":"5200","COUNTRY_CODE":"US","BSTAR":"0.00007794600000"},{"MEAN_ANOMALY":"307.4645","EPOCH":"2022-02-11T11:53:08.335104","OBJECT_NAME":"STARLINK-2337","PERIAPSIS":"545.924","ECCENTRICITY":"0.00017980","RCS_SIZE":"LARGE","EPHEMERIS_TYPE":"0","NORAD_CAT_ID":"47880","CLASSIFICATION_TYPE":"U","LAUNCH_DATE":"2021-03-14","TLE_LINE1":"1 47880U 21021W   22042.49523536  .00001022  00000-0  87501-4 0  9990","OBJECT_TYPE":"PAYLOAD","OBJECT_ID":"2021-021W","FILE":"3297735","APOAPSIS":"548.414","REF_FRAME":"TEME","MEAN_MOTION":"15.06414594","TIME_SYSTEM":"UTC","ARG_OF_PERICENTER":"52.6507","CENTER_NAME":"EARTH","SEMIMAJOR_AXIS":"6925.304","TLE_LINE2":"2 47880  53.0575 117.8693 0001798  52.6507 307.4645 15.06414594 51890","MEAN_MOTION_DOT":"0.00001022","SITE":"AFETR","MEAN_MOTION_DDOT":"0.0000000000000","INCLINATION":"53.0575","MEAN_ELEMENT_THEORY":"SGP4","ELEMENT_SET_NO":"999","GP_ID":"195752119","RA_OF_ASC_NODE":"117.8693","DECAY_DATE":null,"PERIOD":"95.591","REV_AT_EPOCH":"5189","COUNTRY_CODE":"US","BSTAR":"0.00008750100000"},{"OBJECT_TYPE":"PAYLOAD","OBJECT_ID":"2021-021X","FILE":"3297735","APOAPSIS":"548.131","REF_FRAME":"TEME","MEAN_MOTION":"15.06421180","MEAN_ANOMALY":"273.3740","EPOCH":"2022-02-11T12:30:17.916480","PERIAPSIS":"546.166","ECCENTRICITY":"0.00014190","OBJECT_NAME":"STARLINK-2339","RCS_SIZE":"LARGE","EPHEMERIS_TYPE":"0","NORAD_CAT_ID":"47881","CLASSIFICATION_TYPE":"U","TLE_LINE1":"1 47881U 21021X   22042.52104070  .00009156  00000-0  63238-3 0  9999","LAUNCH_DATE":"2021-03-14","MEAN_ELEMENT_THEORY":"SGP4","ELEMENT_SET_NO":"999","GP_ID":"195752369","RA_OF_ASC_NODE":"117.7730","DECAY_DATE":null,"PERIOD":"95.591","REV_AT_EPOCH":"5186","COUNTRY_CODE":"US","BSTAR":"0.00063238000000","TIME_SYSTEM":"UTC","ARG_OF_PERICENTER":"86.7412","CENTER_NAME":"EARTH","SEMIMAJOR_AXIS":"6925.284","TLE_LINE2":"2 47881  53.0571 117.7730 0001419  86.7412 273.3740 15.06421180 51864","MEAN_MOTION_DOT":"0.00009156","SITE":"AFETR","MEAN_MOTION_DDOT":"0.0000000000000","INCLINATION":"53.0571"},{"MEAN_MOTION":"15.06416878","REF_FRAME":"TEME","APOAPSIS":"548.287","FILE":"3297919","OBJECT_ID":"2021-021Y","OBJECT_TYPE":"PAYLOAD","LAUNCH_DATE":"2021-03-14","TLE_LINE1":"1 47882U 21021Y   22042.49616803  .00001945  00000-0  14939-3 0  9990","CLASSIFICATION_TYPE":"U","NORAD_CAT_ID":"47882","RCS_SIZE":"LARGE","EPHEMERIS_TYPE":"0","OBJECT_NAME":"STARLINK-2340","PERIAPSIS":"546.036","ECCENTRICITY":"0.00016250","MEAN_ANOMALY":"300.1823","EPOCH":"2022-02-11T11:54:28.917792","BSTAR":"0.00014939000000","COUNTRY_CODE":"US","REV_AT_EPOCH":"5156","DECAY_DATE":null,"PERIOD":"95.591","RA_OF_ASC_NODE":"107.8838","GP_ID":"195760671","ELEMENT_SET_NO":"999","MEAN_ELEMENT_THEORY":"SGP4","INCLINATION":"53.0545","MEAN_MOTION_DDOT":"0.0000000000000","SITE":"AFETR","MEAN_MOTION_DOT":"0.00001945","TLE_LINE2":"2 47882  53.0545 107.8838 0001625  59.9327 300.1823 15.06416878 51567","SEMIMAJOR_AXIS":"6925.297","CENTER_NAME":"EARTH","ARG_OF_PERICENTER":"59.9327","TIME_SYSTEM":"UTC"},{"ELEMENT_SET_NO":"999","GP_ID":"195753872","MEAN_ELEMENT_THEORY":"SGP4","RA_OF_ASC_NODE":"113.0214","DECAY_DATE":null,"PERIOD":"95.591","REV_AT_EPOCH":"5213","COUNTRY_CODE":"US","BSTAR":"0.00030124000000","TIME_SYSTEM":"UTC","ARG_OF_PERICENTER":"66.9839","CENTER_NAME":"EARTH","SEMIMAJOR_AXIS":"6925.283","MEAN_MOTION_DOT":"0.00004211","SITE":"AFETR","TLE_LINE2":"2 47883  53.0527 113.0214 0001347  66.9839 293.1292 15.06421259 52136","INCLINATION":"53.0527","MEAN_MOTION_DDOT":"0.0000000000000","OBJECT_TYPE":"PAYLOAD","OBJECT_ID":"2021-021Z","FILE":"3297735","APOAPSIS":"548.081","REF_FRAME":"TEME","MEAN_MOTION":"15.06421259","MEAN_ANOMALY":"293.1292","EPOCH":"2022-02-11T11:14:00.336480","PERIAPSIS":"546.216","OBJECT_NAME":"STARLINK-2342","ECCENTRICITY":"0.00013470","NORAD_CAT_ID":"47883","CLASSIFICATION_TYPE":"U","RCS_SIZE":"LARGE","EPHEMERIS_TYPE":"0","TLE_LINE1":"1 47883U 21021Z   22042.46805945  .00004211  00000-0  30124-3 0  9998","LAUNCH_DATE":"2021-03-14"},{"TIME_SYSTEM":"UTC","ARG_OF_PERICENTER":"73.3547","CENTER_NAME":"EARTH","SEMIMAJOR_AXIS":"6925.289","MEAN_MOTION_DOT":"0.00012816","SITE":"AFETR","TLE_LINE2":"2 47884  53.0545 117.7934 0001462  73.3547 286.7603 15.06419533 51891","INCLINATION":"53.0545","MEAN_MOTION_DDOT":"0.0000000000000","ELEMENT_SET_NO":"999","GP_ID":"195752620","MEAN_ELEMENT_THEORY":"SGP4","RA_OF_ASC_NODE":"117.7934","DECAY_DATE":null,"PERIOD":"95.591","COUNTRY_CODE":"US","REV_AT_EPOCH":"5189","BSTAR":"0.00087722000000","MEAN_ANOMALY":"286.7603","EPOCH":"2022-02-11T12:24:59.874624","OBJECT_NAME":"STARLINK-2343","PERIAPSIS":"546.141","ECCENTRICITY":"0.00014620","NORAD_CAT_ID":"47884","CLASSIFICATION_TYPE":"U","EPHEMERIS_TYPE":"0","RCS_SIZE":"LARGE","LAUNCH_DATE":"2021-03-14","TLE_LINE1":"1 47884U 21021AA  22042.51735966  .00012816  00000-0  87722-3 0  9996","OBJECT_TYPE":"PAYLOAD","OBJECT_ID":"2021-021AA","FILE":"3297735","APOAPSIS":"548.166","REF_FRAME":"TEME","MEAN_MOTION":"15.06419533"}];
